ONEWEB-0545             
1 54647U 22166F   25273.47595698  .00000117  00000+0  25273-3 0  9995
2 54647  87.9179 295.8136 0001619  77.5329 282.5986 13.21824097137191
ONEWEB-0580             
1 54648U 22166G   25273.52484914 -.00000016  00000+0 -71209-4 0  9991
2 54648  87.9181 295.8022 0001924  82.0050 278.1302 13.21825987137248
ONEWEB-0582             
1 54649U 22166H   25273.03755658  .00000030  00000+0  40886-4 0  9995
2 54649  87.9175 295.8930 0001916  77.4512 282.6837 13.21824144137159
ONEWEB-0583             
1 54650U 22166J   25273.50277730  .00000049  00000+0  87814-4 0  9991
2 54650  87.9180 295.8256 0001789  89.6902 270.4437 13.21824792137222
ONEWEB-0584             
1 54651U 22166K   25273.52327019 -.00000012  00000+0 -61131-4 0  9996
2 54651  87.9180 295.8059 0002004  83.1295 277.0066 13.21825439137218
ONEWEB-0585             
1 54652U 22166L   25273.47280916  .00000096  00000+0  20016-3 0  9991
2 54652  87.9179 295.8016 0001942  95.7036 264.4319 13.21824406137216
ONEWEB-0586             
1 54653U 22166M   25273.48542792  .00000115  00000+0  24588-3 0  9996
2 54653  87.9181 295.8246 0001821  86.9227 273.2115 13.21825204137214
ONEWEB-0587             
1 54654U 22166N   25273.04070713  .00000002  00000+0 -26557-4 0  9993
2 54654  87.9186 295.8615 0002020 104.3345 255.8014 13.21826779137311
